YAHSAT 1A               
1 37393U 11016B   21044.24962660  .00000087  00000-0  00000-0 0  9995
2 37393   0.0147 117.3495 0002209 148.1221  20.3940  1.00267579 22842
SBIRS GEO-1 (USA 230)   
1 37481U 11019A   21044.39583411 -.00000019  00000-0  00000-0 0  9991
2 37481   1.8644 355.1413 0001764 334.5370  22.6378  1.00272095 35847
TELSTAR 14R             
1 37602U 11021A   21044.53405115 -.00000293  00000-0  00000-0 0  9993
2 37602   0.0562 293.1070 0002246  68.5973 271.2943  1.00272451 36275
GSAT-8                  
1 37605U 11022A   21044.24215812  .00000071  00000-0  00000-0 0  9991
2 37605   0.0119 110.3010 0007457 175.0081   0.3936  1.00272213 33662
ST-2                    
1 37606U 11022B   21044.52063403 -.00000225  00000-0  00000-0 0  9992
2 37606   0.0195 127.5287 0001056 230.2692  61.3639  1.00273273 35727
CHINASAT 10 (ZX 10)     
1 37677U 11026A   21044.49146640 -.00000366  00000-0  00000-0 0  9991
2 37677   0.0537 262.8404 0002873 291.7061 236.6116  1.00269515 35438
TIANLIAN 1-02           
1 37737U 11032A   21044.47150906 -.00000030  00000-0  00000-0 0  9991
2 37737   2.6763  74.4401 0011764 113.1672 296.8654  1.00269190 24670
GSAT-12                 
1 37746U 11034A   21044.22688188 -.00000069  00000-0  00000-0 0  9996
2 37746   0.1647  99.5917 0001172 288.6119 274.9314  0.99994451 23941
SES-3                   
1 37748U 11035A   21044.53485581 -.00000115  00000-0  00000-0 0  9997
2 37748   0.0557 293.5332 0002570  24.4343 275.3254  1.00271763 35068
KAZSAT-2                
1 37749U 11035B   21044.51681537 -.00000211  00000-0  00000-0 0  9992
2 37749   0.0454 261.8840 0001437 147.6702   6.7483  1.00271057 33834
BEIDOU 9                
1 37763U 11038A   21044.56467564 -.00000088  00000-0  00000-0 0  9990
2 37763  54.4627 183.1703 0077483 223.7453  33.5812  1.00290366 35090
ASTRA 1N                
1 37775U 11041A   21044.24299667  .00000105  00000-0  00000-0 0  9998
2 37775   0.0426  21.6034 0004221 345.1488 243.3903  1.00269591 24970
BSAT-3C (JCSAT-110R)    
1 37776U 11041B   21044.49146640 -.00000364  00000-0  00000-0 0  9996
2 37776   0.0451 279.8816 0000204 109.4790  41.2078  1.00268720 30921
PAKSAT-1R               
1 37779U 11042A   21044.24674781  .00000140  00000-0  00000-0 0  9996
2 37779   0.0592 283.4274 0007138  80.4474 266.4186  1.00272308 34921
CHINASAT 1A (ZX 1A)     
1 37804U 11047A   21044.58104765 -.00000351  00000-0  00000-0 0  9992
2 37804   0.0566 277.5904 0001989  60.5056 144.7361  1.00270623 34525
COSMOS 2473             
1 37806U 11048A   21044.45070553 -.00000164  00000-0  00000-0 0  9990
2 37806   0.6296  97.0787 0000686 201.0083 348.8420  1.00256609 34512
SES-2                   
1 37809U 11049A   21044.48035271 -.00000209  00000-0  00000-0 0  9995
2 37809   0.0551 290.1753 0002678  34.0592 265.3796  1.00272536 34419
ARABSAT-5C              
1 37810U 11049B   21044.31299434  .00000109  00000-0  00000-0 0  9990
2 37810   0.0589  13.0751 0001534 269.7238 353.4136  1.00270020 34509
EUTELSAT 7 WEST A       
1 37816U 11051A   21044.38126569 -.00000074  00000-0  00000-0 0  9996
2 37816   0.0731  46.0665 0002641 189.4694  38.0100  1.00272048 34349
QUETZSAT 1              
1 37826U 11054A   21044.52472340 -.00000255  00000-0  00000-0 0  9998
2 37826   0.0607 289.7677 0002434  37.0351 288.8306  1.00272896 30349
INTELSAT 18 (IS-18)     
1 37834U 11056A   21044.47808162  .00000039  00000-0  00000-0 0  9997
2 37834   0.0209  70.1103 0001742 269.8288 155.8628  1.00272976 34362
EUTELSAT 16A            
1 37836U 11057A   21044.31299434  .00000090  00000-0  00000-0 0  9996
2 37836   0.0662   7.3148 0004863 319.7207 305.1803  1.00269770 26422
VIASAT-1                
1 37843U 11059A   21044.52710443 -.00000037  00000-0  00000-0 0  9999
2 37843   0.0129 101.3342 0002573 225.1944 251.8451  1.00273923 27773
ASIASAT 7               
1 37933U 11069A   21044.49494080 -.00000348  00000-0  00000-0 0  9997
2 37933   0.0656 274.8396 0001410  40.4507 112.0969  1.00273676 25309
BEIDOU 10               
1 37948U 11073A   21044.06658692 -.00000133  00000-0  00000-0 0  9994
2 37948  51.1734 295.0892 0069396 215.4976 112.4840  1.00280994 33847
LUCH 5A                 
1 37951U 11074B   21044.65158207 -.00000061  00000-0  00000-0 0  9991
2 37951   3.8218 108.3353 0003012 267.1557 169.9009  1.00270008 33649
NIGCOMSAT 1R            
1 38014U 11077A   21044.17341097  .00000130  00000-0  00000-0 0  9999
2 38014   0.0090 291.1986 0000181 265.3990  51.7412  1.00274163 33401
FENGYUN 2F              
1 38049U 12002A   21044.54867153 -.00000371  00000-0  00000-0 0  9991
2 38049   2.6206  82.7257 0004266  24.3768 346.3805  1.00268712 33340
WGS F4 (USA 233)        
1 38070U 12003A   21044.40101462 -.00000229  00000-0  00000-0 0  9997
2 38070   0.0115 116.2618 0000293  12.0860 248.0008  1.00273654 24593
SES-4                   
1 38087U 12007A   21044.37838691 -.00000182  00000-0  00000-0 0  9994
2 38087   0.0172  50.5641 0002219 274.7821 292.4661  1.00270510 32690
BEIDOU 11               
1 38091U 12008A   21044.10734472  .00000042  00000-0  00000-0 0  9997
2 38091   1.9917  71.6307 0003812 257.2908 271.8045  1.00275181 32929
MUOS-1                  
1 38093U 12009A   21044.54372185 -.00000138  00000-0  00000-0 0  9994
2 38093   2.5658  16.3769 0057697 357.0673 226.0473  1.00273266 32891
INTELSAT 22 (IS-22)     
1 38098U 12011A   21044.39714264 -.00000073  00000-0  00000-0 0  9991
2 38098   0.0207  97.4233 0002759 230.1103  31.1667  1.00272547 32265
APSTAR 7                
1 38107U 12013A   21044.39784053 -.00000115  00000-0  00000-0 0  9994
2 38107   0.0127 127.9037 0002390 212.5019  22.9091  1.00272456 32256
YAHSAT 1B               
1 38245U 12016A   21044.46405264  .00000113  00000-0  00000-0 0  9999
2 38245   0.0118 105.6257 0001693 220.7973  31.9114  1.00273003 26046
AEHF-2 (USA 235)        
1 38254U 12019A   21044.49193427 -.00000288  00000-0  00000-0 0  9994
2 38254   2.3963  53.9206 0002946 339.9822 219.2820  1.00277162 31306
JCSAT-13                
1 38331U 12023A   21044.47923170 -.00000370  00000-0  00000-0 0  9991
2 38331   0.0418 272.0569 0000887 130.1742  37.9987  1.00272398 31970
VINASAT-2               
1 38332U 12023B   21044.48080193 -.00000342  00000-0  00000-0 0  9991
2 38332   0.0522 290.6925 0002206  50.8245 107.1126  1.00272438 27102
NIMIQ 6                 
1 38342U 12026A   21044.54979263 -.00000186  00000-0  00000-0 0  9993
2 38342   0.0142 259.6694 0001914  64.0989 286.8377  1.00268121 30871
CHINASAT 2A (ZX 2A)     
1 38352U 12028A   21044.49840988 -.00000306  00000-0  00000-0 0  9995
2 38352   0.0401 275.6375 0001927  86.7046  59.0584  1.00271564 31824
INTELSAT 19 (IS-19)     
1 38356U 12030A   21044.50117049 -.00000070  00000-0  00000-0 0  9997
2 38356   0.0251 121.5549 0003039 216.8093 151.8037  1.00270198 30912
ECHOSTAR 17             
1 38551U 12035A   21044.53288409 -.00000088  00000-0  00000-0 0  9990
2 38551   0.0144  97.3074 0001997 219.9224 271.2470  1.00271150 31518
METEOSAT-10 (MSG-3)     
1 38552U 12035B   21044.24099024  .00000048  00000-0  00000-0 0  9997
2 38552   1.2250 358.8454 0001062  43.3211 197.2859  1.00274865 31306
SES-5                   
1 38652U 12036A   21044.24020510  .00000019  00000-0  00000-0 0  9991
2 38652   0.0196  79.2102 0001633 238.2776 277.4143  1.00271519 24944
TIANLIAN 1-03           
1 38730U 12040A   21044.24325837  .00000110  00000-0  00000-0 0  9995
2 38730   0.8032  98.5753 0006418 278.0894 234.7320  1.00269955 31439
INTELSAT 20 (IS-20)     
1 38740U 12043A   21044.39644476 -.00000038  00000-0  00000-0 0  9998
2 38740   0.0225 117.9277 0001357  61.5327 175.3691  1.00272225 31194
HYLAS 2                 
1 38741U 12043B   21044.24535205  .00000140  00000-0  00000-0 0  9995
2 38741   0.0385 289.1188 0001682  36.4780 297.2027  1.00272518 31215
INTELSAT 21 (IS-21)     
1 38749U 12045A   21044.49756855 -.00000298  00000-0  00000-0 0  9993
2 38749   0.0130 109.2201 0001909 215.8293 299.7984  1.00272545 30996
ASTRA 2F                
1 38778U 12051A   21044.24482862  .00000136  00000-0  00000-0 0  9999
2 38778   0.1035 254.2459 0002915  15.7743 349.7775  1.00269243 21562
GSAT-10                 
1 38779U 12051B   21044.39932354 -.00000179  00000-0  00000-0 0  9990
2 38779   0.1238 273.8493 0002659 336.8718 119.6623  1.00273407 30560
INTELSAT 23 (IS-23)     
1 38867U 12057A   21044.50082528 -.00000298  00000-0  00000-0 0  9998
2 38867   0.0160 123.8853 0001630 200.6050 306.5214  1.00270971 30421
BEIDOU 16               
1 38953U 12059A   21042.84960972 -.00000191  00000-0  00000-0 0  9991
2 38953   1.6700  84.9457 0009514 267.4850 179.4341  1.00272454 30481
LUCH 5B                 
1 38977U 12061A   21044.37943374 -.00000147  00000-0  00000-0 0  9998
2 38977   6.2511  66.0796 0001969 259.8338 297.9546  1.00271148 30625
YAMAL 300K              
1 38978U 12061B   21044.51378961  .00000058  00000-0  00000-0 0  9999
2 38978   0.0179 196.2772 0001144  57.9693 257.4093  1.00275753 30099
STAR ONE C3             
1 38991U 12062A   21044.52643146 -.00000262  00000-0  00000-0 0  9994
2 38991   0.0341 100.1848 0001382 262.8632 255.2286  1.00272654 30218
EUTELSAT 21B            
1 38992U 12062B   21044.24352008  .00000116  00000-0  00000-0 0  9995
2 38992   0.0667   7.3382 0002461 318.1825 287.2110  1.00269668 30288
ECHOSTAR 16             
1 39008U 12065A   21044.53487374 -.00000295  00000-0  00000-0 0  9993
2 39008   0.0144 104.5440 0002183 213.6777 316.5801  1.00273853 30079
CHINASAT 12 (ZX 12)     
1 39017U 12067A   21044.52063403 -.00000220  00000-0  00000-0 0  9995
2 39017   0.0104 124.5029 0002730 205.7413  88.4031  1.00270547 29959
EUTELSAT 70B            
1 39020U 12069A   21044.39679370 -.00000057  00000-0  00000-0 0  9990
2 39020   0.0603 333.5671 0003397 258.5370 124.8373  1.00273083 29952
